{
  "type": "FeatureCollection",
  "features": [
    {
      "type": "Feature",
      "properties": {
        "norad_id": 28899,
        "name": "INMARSAT 4-F2 (SOUTHPAN/PRN 122)",
        "group": "gnss",
        "lat": -3.598300813024295,
        "lon": -4.222200651217046,
        "alt_km": 35788.40642627446,
        "timestamp": "2025-12-08T08:59:01.007554+00:00",
        "meta_object_name": "INMARSAT 4-F2 (SOUTHPAN/PRN 122)",
        "meta_object_id": "2005-044A",
        "meta_epoch": "2025-12-07T22:52:41.557728",
        "meta_mean_motion": 1.00271207,
        "meta_eccentricity": 0.00033346,
        "meta_inclination": 4.8463,
        "meta_ra_of_asc_node": 43.6765,
        "meta_arg_of_pericenter": 215.2806,
        "meta_mean_anomaly": 304.6867,
        "meta_ephemeris_type": 0,
        "meta_classification_type": "U",
        "meta_norad_cat_id": 28899,
        "meta_element_set_no": 999,
        "meta_rev_at_epoch": 7360,
        "meta_bstar": 0,
        "meta_mean_motion_dot": -2.59e-06,
        "meta_mean_motion_ddot": 0,
        "tle_line1": "1 28899U 05044A   25341.95325877 -.00000259  00000+0  00000+0 0  9995",
        "tle_line2": "2 28899   4.8463  43.6765 0003334 215.2806 304.6867  1.00271207 73601"
      },
      "geometry": {
        "type": "Point",
        "coordinates": [
          -4.222200651217046,
          -3.598300813024295
        ]
      }
    },
    {
      "type": "Feature",
      "properties": {
        "norad_id": 29486,
        "name": "GPS BIIRM-2 (PRN 31)",
        "group": "gnss",
        "lat": -46.17477968124011,
        "lon": 26.52384657992855,
        "alt_km": 20468.708653887374,
        "timestamp": "2025-12-08T08:59:01.007566+00:00",
        "meta_object_name": "GPS BIIRM-2 (PRN 31)",
        "meta_object_id": "2006-042A",
        "meta_epoch": "2025-12-07T13:22:14.545056",
        "meta_mean_motion": 2.0055427,
        "meta_eccentricity": 0.01073634,
        "meta_inclination": 54.6934,
        "meta_ra_of_asc_node": 158.9464,
        "meta_arg_of_pericenter": 51.8351,
        "meta_mean_anomaly": 320.4932,
        "meta_ephemeris_type": 0,
        "meta_classification_type": "U",
        "meta_norad_cat_id": 29486,
        "meta_element_set_no": 999,
        "meta_rev_at_epoch": 14055,
        "meta_bstar": 0,
        "meta_mean_motion_dot": 5.8e-07,
        "meta_mean_motion_ddot": 0,
        "tle_line1": "1 29486U 06042A   25341.55711279  .00000058  00000+0  00000+0 0  9994",
        "tle_line2": "2 29486  54.6934 158.9464 0107363  51.8351 320.4932  2.00554270140555"
      },
      "geometry": {
        "type": "Point",
        "coordinates": [
          26.52384657992855,
          -46.17477968124011
        ]
      }
    },
    {
      "type": "Feature",
      "properties": {
        "norad_id": 29601,
        "name": "GPS BIIRM-3 (PRN 12)",
        "group": "gnss",
        "lat": -45.67137372939355,
        "lon": 175.72956078495605,
        "alt_km": 20383.726649900902,
        "timestamp": "2025-12-08T08:59:01.007579+00:00",
        "meta_object_name": "GPS BIIRM-3 (PRN 12)",
        "meta_object_id": "2006-052A",
        "meta_epoch": "2025-12-06T23:07:38.134848",
        "meta_mean_motion": 2.0057305,
        "meta_eccentricity": 0.00876251,
        "meta_inclination": 54.9717,
        "meta_ra_of_asc_node": 221.6275,
        "meta_arg_of_pericenter": 87.379,
        "meta_mean_anomaly": 273.714,
        "meta_ephemeris_type": 0,
        "meta_classification_type": "U",
        "meta_norad_cat_id": 29601,
        "meta_element_set_no": 999,
        "meta_rev_at_epoch": 13955,
        "meta_bstar": 0,
        "meta_mean_motion_dot": 3.6e-07,
        "meta_mean_motion_ddot": 0,
        "tle_line1": "1 29601U 06052A   25340.96363582  .00000036  00000+0  00000+0 0  9994",
        "tle_line2": "2 29601  54.9717 221.6275 0087625  87.3790 273.7140  2.00573050139559"
      },
      "geometry": {
        "type": "Point",
        "coordinates": [
          175.72956078495605,
          -45.67137372939355
        ]
      }
    },
    {
      "type": "Feature",
      "properties": {
        "norad_id": 32260,
        "name": "GPS BIIRM-4 (PRN 15)",
        "group": "gnss",
        "lat": 52.714986180114614,
        "lon": 160.74071852603055,
        "alt_km": 19742.01922737562,
        "timestamp": "2025-12-08T08:59:01.007591+00:00",
        "meta_object_name": "GPS BIIRM-4 (PRN 15)",
        "meta_object_id": "2007-047A",
        "meta_epoch": "2025-12-07T06:27:37.313568",
        "meta_mean_motion": 2.00564639,
        "meta_eccentricity": 0.01643207,
        "meta_inclination": 53.9516,
        "meta_ra_of_asc_node": 87.9845,
        "meta_arg_of_pericenter": 85.1852,
        "meta_mean_anomaly": 276.674,
        "meta_ephemeris_type": 0,
        "meta_classification_type": "U",
        "meta_norad_cat_id": 32260,
        "meta_element_set_no": 999,
        "meta_rev_at_epoch": 13296,
        "meta_bstar": 0,
        "meta_mean_motion_dot": -2e-07,
        "meta_mean_motion_ddot": 0,
        "tle_line1": "1 32260U 07047A   25341.26918187 -.00000020  00000+0  00000+0 0  9999",
        "tle_line2": "2 32260  53.9516  87.9845 0164320  85.1852 276.6740  2.00564639132968"
      },
      "geometry": {
        "type": "Point",
        "coordinates": [
          160.74071852603055,
          52.714986180114614
        ]
      }
    },
    {
      "type": "Feature",
      "properties": {
        "norad_id": 32275,
        "name": "COSMOS 2433 (720)",
        "group": "gnss",
        "lat": -15.671187524987792,
        "lon": -44.9450817121664,
        "alt_km": 19132.068592810385,
        "timestamp": "2025-12-08T08:59:01.007603+00:00",
        "meta_object_name": "COSMOS 2433 (720)",
        "meta_object_id": "2007-052A",
        "meta_epoch": "2025-12-06T23:44:11.537952",
        "meta_mean_motion": 2.13103921,
        "meta_eccentricity": 0.00054556,
        "meta_inclination": 65.6864,
        "meta_ra_of_asc_node": 322.3989,
        "meta_arg_of_pericenter": 253.5069,
        "meta_mean_anomaly": 106.429,
        "meta_ephemeris_type": 0,
        "meta_classification_type": "U",
        "meta_norad_cat_id": 32275,
        "meta_element_set_no": 999,
        "meta_rev_at_epoch": 14096,
        "meta_bstar": 0,
        "meta_mean_motion_dot": -5e-07,
        "meta_mean_motion_ddot": 0,
        "tle_line1": "1 32275U 07052A   25340.98902243 -.00000050  00000+0  00000+0 0  9998",
        "tle_line2": "2 32275  65.6864 322.3989 0005455 253.5069 106.4290  2.13103921140965"
      },
      "geometry": {
        "type": "Point",
        "coordinates": [
          -44.9450817121664,
          -15.671187524987792
        ]
      }
    },
    {
      "type": "Feature",
      "properties": {
        "norad_id": 32276,
        "name": "COSMOS 2432 (719)",
        "group": "gnss",
        "lat": -60.55965262812058,
        "lon": -90.69833461574522,
        "alt_km": 19110.116532915537,
        "timestamp": "2025-12-08T08:59:01.007615+00:00",
        "meta_object_name": "COSMOS 2432 (719)",
        "meta_object_id": "2007-052B",
        "meta_epoch": "2025-12-07T02:45:37.162080",
        "meta_mean_motion": 2.13103072,
        "meta_eccentricity": 0.00112789,
        "meta_inclination": 65.7022,
        "meta_ra_of_asc_node": 322.5187,
        "meta_arg_of_pericenter": 312.1761,
        "meta_mean_anomaly": 88.8989,
        "meta_ephemeris_type": 0,
        "meta_classification_type": "U",
        "meta_norad_cat_id": 32276,
        "meta_element_set_no": 999,
        "meta_rev_at_epoch": 14099,
        "meta_bstar": 0,
        "meta_mean_motion_dot": -5e-07,
        "meta_mean_motion_ddot": 0,
        "tle_line1": "1 32276U 07052B   25341.11501345 -.00000050  00000+0  00000+0 0  9993",
        "tle_line2": "2 32276  65.7022 322.5187 0011278 312.1761  88.8989  2.13103072140994"
      },
      "geometry": {
        "type": "Point",
        "coordinates": [
          -90.69833461574522,
          -60.55965262812058
        ]
      }
    },
    {
      "type": "Feature",
      "properties": {
        "norad_id": 32384,
        "name": "GPS BIIRM-5 (PRN 29)",
        "group": "gnss",
        "lat": -23.600007680143236,
        "lon": 119.47880253901556,
        "alt_km": 20125.11987025112,
        "timestamp": "2025-12-08T08:59:01.007627+00:00",
        "meta_object_name": "GPS BIIRM-5 (PRN 29)",
        "meta_object_id": "2007-062A",
        "meta_epoch": "2025-12-07T07:51:30.252672",
        "meta_mean_motion": 2.00576914,
        "meta_eccentricity": 0.00322165,
        "meta_inclination": 55.187,
        "meta_ra_of_asc_node": 281.863,
        "meta_arg_of_pericenter": 162.6337,
        "meta_mean_anomaly": 10.2823,
        "meta_ephemeris_type": 0,
        "meta_classification_type": "U",
        "meta_norad_cat_id": 32384,
        "meta_element_set_no": 999,
        "meta_rev_at_epoch": 13166,
        "meta_bstar": 0,
        "meta_mean_motion_dot": -4e-07,
        "meta_mean_motion_ddot": 0,
        "tle_line1": "1 32384U 07062A   25341.32743348 -.00000040  00000+0  00000+0 0  9997",
        "tle_line2": "2 32384  55.1870 281.8630 0032216 162.6337  10.2823  2.00576914131665"
      },
      "geometry": {
        "type": "Point",
        "coordinates": [
          119.47880253901556,
          -23.600007680143236
        ]
      }
    }
  ]
}